CYGFM07                 
1 41890U 16078G   26092.86928754  .00046891  00000+0  64173-3 0  9993
2 41890  34.9470   9.5045 0007127 216.1602 143.8641 15.56282590517248
CYGFM03                 
1 41891U 16078H   26092.90446900  .00047080  00000+0  64434-3 0  9998
2 41891  34.9422  11.2378 0006075 205.6813 154.3610 15.56288592517222
FENGYUN 3D              
1 43010U 17072A   26092.95031157 -.00000099  00000+0 -24940-4 0  9997
2 43010  99.0066  66.0386 0000444 277.7834  82.3291 14.19722113434310
NOAA 20 (JPSS-1)        
1 43013U 17073A   26092.93427436  .00000144  00000+0  89196-4 0  9991
2 43013  98.7722  33.0845 0002014 104.7853 255.3546 14.19542693433796
GOES 17                 
1 43226U 18022A   26092.87498082 -.00000186  00000+0  00000+0 0  9999
2 43226   0.7447  86.8367 0001263 252.2363  77.6328  1.00271879 29665
FENGYUN 2H              
1 43491U 18050A   26092.90834762 -.00000129  00000+0  00000+0 0  9994
2 43491   2.8373  79.9716 0001320 174.3756 342.9461  1.00270485 28684
METOP-C                 
1 43689U 18087A   26092.89402247  .00000182  00000+0  10312-3 0  9999
2 43689  98.6715 153.8502 0001831  66.9105 293.2266 14.21505353384130
GEO-KOMPSAT-2A          
1 43823U 18100A   26092.56157527  .00000000  00000+0  00000+0 0  9995
2 43823   0.0146  62.3579 0002205 359.3709  99.5883  1.00266408 26872
METEOR-M2 2             
1 44387U 19038A   26092.94020815  .00000236  00000+0  12198-3 0  9999
2 44387  98.9111  79.1309 0000562 174.3417 185.7768 14.24344020350583
ARKTIKA-M 1             
1 47719U 21016A   26086.24697042 -.00000098  00000+0  00000+0 0  9990
2 47719  63.2179  69.3783 7253959 269.5617  15.0995  2.00616454 37142
FENGYUN 3E              
1 49008U 21062A   26093.01329194 -.00000313  00000+0 -12671-3 0  9999
2 49008  98.7509  97.2560 0001040 350.4283   9.6873 14.19895846245919
GOES 18                 
1 51850U 22021A   26092.61419759  .00000091  00000+0  00000+0 0  9995
2 51850   0.0505  40.6889 0000685  30.2388 204.1314  1.00273346  5836
NOAA 21 (JPSS-2)        
1 54234U 22150A   26092.89822498  .00000123  00000+0  79017-4 0  9990
2 54234  98.7584  32.8908 0002673  64.4988 295.6464 14.19558802175864
METEOSAT-12 (MTG-I1)    
1 54743U 22170C   26092.89266088 -.00000011  00000+0  00000+0 0  9992
2 54743   0.7379  26.2356 0001619 299.9147 186.1117  1.00274244 12229
TIANMU-1 03             
1 55973U 23039A   26092.91360797  .00028339  00000+0  59936-3 0  9996
2 55973  97.5198 264.0713 0003101  32.1480 327.9957 15.45108196169206
TIANMU-1 04             
1 55974U 23039B   26092.93029946  .00043022  00000+0  89156-3 0  9990
2 55974  97.5132 263.2429 0003629  24.4139 335.7281 15.45618211169212
TIANMU-1 05             
1 55975U 23039C   26092.95590517  .00028919  00000+0  61272-3 0  9997
2 55975  97.5179 263.7574 0003342  52.9448 307.2105 15.45050952169199
TIANMU-1 06             
1 55976U 23039D   26092.92981801  .00029228  00000+0  60841-3 0  9990
2 55976  97.5189 264.2932 0003502  46.3447 313.8092 15.45568902169219
FENGYUN 3G              
1 56232U 23055A   26092.96065109  .00050635  00000+0  78612-3 0  9993
2 56232  49.9948  13.9236 0004257  36.8416 323.2843 15.53409435168316
METEOR-M2 3             
1 57166U 23091A   26092.98793840  .00000019  00000+0  27005-4 0  9994
2 57166  98.6168 149.4778 0004570  43.2039 316.9498 14.24040259143810
TIANMU-1 07             
1 57399U 23101A   26092.92697571  .00012999  00000+0  45878-3 0  9999
2 57399  97.2672 145.3307 0004566  84.5940 275.5821 15.29351191150140
TIANMU-1 08             
1 57400U 23101B   26090.01593531  .00000377  00000+0  15776-4 0  9993
2 57400  97.2674 142.2648 0005592  72.2016 287.9835 15.29380885149699
TIANMU-1 09             
1 57401U 23101C   26092.94376603  .00013736  00000+0  48429-3 0  9990
2 57401  97.2620 144.5840 0005013  82.7658 277.4152 15.29371181150143
TIANMU-1 10             
1 57402U 23101D   26092.91113955  .00011314  00000+0  39867-3 0  9993
2 57402  97.2698 145.5237 0006249  70.3639 289.8275 15.29429261150139
FENGYUN 3F              
1 57490U 23111A   26092.92832649  .00000100  00000+0  67713-4 0  9993
2 57490  98.6886 164.3246 0000836  84.9794 275.1478 14.19925275138186
ARKTIKA-M 2             
1 58584U 23198A   26089.99739019  .00000142  00000+0  00000+0 0  9990
2 58584  63.2169 163.0455 6882975 267.6817  18.8399  2.00607099 16755
TIANMU-1 11             
1 58645U 23205A   26093.00182667  .00011816  00000+0  45873-3 0  9996
2 58645  97.3509 115.7596 0007067 268.7794  91.2635 15.26217466126050
TIANMU-1 12             
1 58646U 23205B   26092.96978367  .00011366  00000+0  44235-3 0  9992
2 58646  97.3497 115.5007 0005502 245.9539 114.1124 15.26153319126030
TIANMU-1 13             
1 58647U 23205C   26092.99987189  .00012162  00000+0  47232-3 0  9993
2 58647  97.3525 115.7799 0006220 223.2429 136.8322 15.26205275126038
TIANMU-1 14             
1 58648U 23205D   26092.98484200  .00011613  00000+0  45145-3 0  9990
2 58648  97.3461 115.0120 0006814 229.4994 130.5652 15.26179168126031
TIANMU-1 19             
1 58660U 23208A   26092.92710438  .00018125  00000+0  61877-3 0  9991
2 58660  97.4415 208.9514 0004477 207.3737 152.7269 15.30365883125818
TIANMU-1 20             
1 58661U 23208B   26092.95799103  .00017567  00000+0  57810-3 0  9992
2 58661  97.4355 209.5406 0006393 222.2909 137.7840 15.31552311125908
TIANMU-1 21             
1 58662U 23208C   26092.92404440  .00020837  00000+0  64147-3 0  9992
2 58662  97.4413 211.8750 0006476 216.4664 143.6138 15.33652496126024
TIANMU-1 22             
1 58663U 23208D   26092.95109400  .00016508  00000+0  57143-3 0  9992
2 58663  97.4410 208.9702 0002704 229.9641 130.1363 15.29942198125824
TIANMU-1 15             
1 58700U 24004A   26092.78569177  .00008456  00000+0  32963-3 0  9997
2 58700  97.4672 278.9989 0005724 249.4456 110.6168 15.26189843124277
TIANMU-1 16             
1 58701U 24004B   26092.96530477  .00011734  00000+0  45559-3 0  9997
2 58701  97.4616 278.4845 0004102 250.8380 109.2415 15.26236805124307
TIANMU-1 17             
1 58702U 24004C   26091.57028167  .00007595  00000+0  29601-3 0  9992
2 58702  97.4645 277.5558 0003307 258.0365 102.0503 15.26240118124086
TIANMU-1 18             
1 58703U 24004D   26092.93316424  .00011997  00000+0  46619-3 0  9999
2 58703  97.4663 279.1324 0002744 248.5486 111.5459 15.26206784124297
INSAT-3DS               
1 58990U 24033A   26092.90895428 -.00000160  00000+0  00000+0 0  9993
2 58990   0.0355 102.2284 0002150 274.7896 223.5255  1.00271748 46314
METEOR-M2 4             
1 59051U 24039A   26092.98763571  .00000059  00000+0  46099-4 0  9998
2 59051  98.6945  53.2597 0007736  34.9207 325.2478 14.22421182108571
GOES 19                 
1 60133U 24119A   26092.87784083 -.00000253  00000+0  00000+0 0  9993
2 60133   0.0552  40.4469 0000906  15.8497  15.7427  1.00272329  6203
FENGYUN 3H              
1 65815U 25219A   26092.92435071  .00000132  00000+0  82630-4 0  9992
2 65815  98.6718  35.1787 0000746  66.0409 294.0846 14.19939227 26704
OSCAR 7 (AO-7)          
1 07530U 74089B   26092.83955300 -.00000042  00000+0  25681-4 0  9997
2 07530 101.9952 105.2895 0011870 275.0015 262.3651 12.53696924351079
PHASE 3B (AO-10)        
1 14129U 83058B   26092.61498185  .00000195  00000+0  00000+0 0  9995
2 14129  25.9057 232.2039 6038024  94.7765 332.2066  2.05870088293935
UOSAT 2 (UO-11)         
1 14781U 84021B   26092.90785434  .00002900  00000+0  30175-3 0  9994
2 14781  97.7988  59.3652 0009166  76.1014 284.1223 14.90594923245911
LUSAT (LO-19)           
1 20442U 90005G   26091.99399193  .00000181  00000+0  81236-4 0  9999
2 20442  98.8915 111.6795 0012617  71.7017 288.5538 14.34097888891474
EYESAT A (AO-27)        
1 22825U 93061C   26092.41160707  .00000170  00000+0  81692-4 0  9990
2 22825  98.6935 159.8341 0007668 329.4898  30.5837 14.30921189696164
ITAMSAT (IO-26)         
1 22826U 93061D   26092.90286773  .00000197  00000+0  91442-4 0  9990
2 22826  98.6883 160.2354 0007916 309.3696  50.6785 14.31346378696545
RADIO ROSTO (RS15)      
1 23439U 94085A   26092.90764231 -.00000052  00000+0 -28080-3 0  9997
2 23439  64.8163  64.9609 0153592  17.5388 343.0759 11.27583862287418
JAS-2 (FO-29)           
1 24278U 96046B   26092.52686088  .00000011  00000+0  50497-4 0  9990
2 24278  98.5340 311.7179 0348942 292.8487  63.6161 13.53270274462934
TECHSAT 1B (GO-32)      
1 25397U 98043D   26092.90399161  .00000128  00000+0  75604-4 0  9993
2 25397  99.0052  83.7742 0002328  80.4696 279.6745 14.24412963440613
ISS (ZARYA)             
1 25544U 98067A   26092.84326290  .00011825  00000+0  22447-3 0  9991
2 25544  51.6328 312.9475 0006235 264.7845  95.2432 15.48729122560074
PCSAT (NO-44)           
1 26931U 01043C   26092.65565425  .00000234  00000+0  11824-3 0  9993
2 26931  67.0494  79.6262 0006843 264.5876  95.4446 14.31924623279638
SAUDISAT 1C (SO-50)     
1 27607U 02058C   26092.89659004  .00002263  00000+0  28324-3 0  9991
2 27607  64.5557   1.9028 0075445 276.2114  83.0401 14.82879462253292
CUTE-1 (CO-55)          
1 27844U 03031E   26092.94086536  .00000515  00000+0  24210-3 0  9994
2 27844  98.6770 102.4393 0010423  49.3322 310.8761 14.24287323180965
CUBESAT XI-IV (CO-57)   
1 27848U 03031J   26092.96203646  .00000424  00000+0  20521-3 0  9993
2 27848  98.6803 102.2335 0010540  65.6826 294.5452 14.23579169180674
MOZHAETS 4 (RS22)       
1 27939U 03042A   26092.98385894  .00002087  00000+0  33049-3 0  9990
2 27939  98.3452 275.2246 0011966 142.2337   9.3078 14.73325651204477
CUBESAT XI-V            
1 28895U 05043F   26092.36541762  .00002712  00000+0  43538-3 0  9994
2 28895  98.2878 246.4447 0015318  87.3520 272.9440 14.72420705 90593
CUTE-1.7+APD II (CO-65) 
1 32785U 08021C   26092.92426095  .00010809  00000+0  69226-3 0  9997
2 32785  97.8237  72.8419 0007087 289.4673  70.5789 15.08720869973848
